<?xml version="1.0" encoding="UTF-8"?>
<kml xmlns="http://www.opengis.net/kml/2.2">
  <Document>
    <name>Publicar Maps 22/09/2026 23:40</name>
    <Placemark>
      <name>limite ext pulve 1</name>
      <Style><LineStyle><color>ffe5e0eb</color><width>2</width></LineStyle><PolyStyle><color>55e5e0eb</color></PolyStyle></Style>
      <ExtendedData>
        <Data name="camada"><value>limite ext pulve</value></Data>
        <Data name="classificacao"><value>limite ext pulve</value></Data>
      </ExtendedData>
      <Polygon><tessellate>1</tessellate>
        <outerBoundaryIs><LinearRing><coordinates>-51.95343141,-23.30334219,0 -51.95311777,-23.30361299,0 -51.95272642,-23.30392592,0 -51.95259160,-23.30404585,0 -51.95252718,-23.30410707,0 -51.95240076,-23.30421751,0 -51.95226725,-23.30432686,0 -51.95220275,-23.30438385,0 -51.95202152,-23.30455235,0 -51.95193730,-23.30464426,0 -51.95191668,-23.30467571,0 -51.95190785,-23.30471095,0 -51.95191297,-23.30474811,0 -51.95192950,-23.30482082,0 -51.95192937,-23.30485857,0 -51.95191281,-23.30493476,0 -51.95186135,-23.30508740,0 -51.95178914,-23.30523415,0 -51.95174211,-23.30534698,0 -51.95170665,-23.30541659,0 -51.95169301,-23.30545444,0 -51.95168404,-23.30549011,0 -51.95165658,-23.30556284,0 -51.95164756,-23.30560124,0 -51.95163490,-23.30571451,0 -51.95159886,-23.30586429,0 -51.95159252,-23.30597717,0 -51.95157177,-23.30621855,0 -51.95157032,-23.30626014,0 -51.95157432,-23.30649599,0 -51.95156122,-23.30668901,0 -51.95155328,-23.30676675,0 -51.95154802,-23.30688070,0 -51.95152940,-23.30699590,0 -51.95152598,-23.30703312,0 -51.95152093,-23.30718597,0 -51.95151303,-23.30729888,0 -51.95150105,-23.30737478,0 -51.95149869,-23.30745282,0 -51.95150087,-23.30753222,0 -51.95149846,-23.30756857,0 -51.95147488,-23.30767892,0 -51.95146938,-23.30775705,0 -51.95146463,-23.30794950,0 -51.95146110,-23.30798696,0 -51.95146060,-23.30814079,0 -51.95145107,-23.30833162,0 -51.95144973,-23.30852888,0 -51.95145440,-23.30857022,0 -51.95147052,-23.30864579,0 -51.95147515,-23.30868416,0 -51.95146281,-23.30888281,0 -51.95146676,-23.30896250,0 -51.95148674,-23.30908340,0 -51.95150884,-23.30915906,0 -51.95152383,-23.30919456,0 -51.95154260,-23.30922910,0 -51.95160949,-23.30933138,0 -51.95164692,-23.30940379,0 -51.95166076,-23.30944180,0 -51.95166604,-23.30948112,0 -51.95166548,-23.30952170,0 -51.95165703,-23.30959629,0 -51.95164433,-23.30963379,0 -51.95161204,-23.30979218,0 -51.95158744,-23.30999675,0 -51.95157281,-23.31040857,0 -51.95157256,-23.31057226,0 -51.95158542,-23.31074944,0 -51.95163029,-23.31106247,0 -51.95164717,-23.31135344,0 -51.95167175,-23.31154218,0 -51.95169711,-23.31185539,0 -51.95170972,-23.31197053,0 -51.95173739,-23.31212601,0 -51.95174821,-23.31224016,0 -51.95174641,-23.31235402,0 -51.95176076,-23.31246776,0 -51.95176056,-23.31254175,0 -51.95176461,-23.31257900,0 -51.95190788,-23.31298151,0 -51.95194305,-23.31305695,0 -51.95195791,-23.31309535,0 -51.95196776,-23.31313574,0 -51.95198137,-23.31321729,0 -51.95200096,-23.31329989,0 -51.95202843,-23.31338025,0 -51.95204613,-23.31342011,0 -51.95217398,-23.31364309,0 -51.95224226,-23.31375334,0 -51.95229275,-23.31382190,0 -51.95240282,-23.31395851,0 -51.95242217,-23.31399001,0 -51.95243785,-23.31402640,0 -51.95244466,-23.31406440,0 -51.95245099,-23.31414476,0 -51.95245907,-23.31418534,0 -51.95247946,-23.31425915,0 -51.95249584,-23.31429733,0 -51.95251381,-23.31432946,0 -51.95254005,-23.31435917,0 -51.95257792,-23.31437371,0 -51.95262049,-23.31436937,0 -51.95265572,-23.31435227,0 -51.95268834,-23.31432617,0 -51.95281017,-23.31421861,0 -51.95293363,-23.31411788,0 -51.95305875,-23.31401030,0 -51.95314442,-23.31392850,0 -51.95317564,-23.31390394,0 -51.95320986,-23.31388237,0 -51.95330947,-23.31380578,0 -51.95363789,-23.31353558,0 -51.95380196,-23.31340442,0 -51.95455807,-23.31277241,0 -51.95469045,-23.31266613,0 -51.95507164,-23.31234945,0 -51.95516287,-23.31226910,0 -51.95524527,-23.31218333,0 -51.95528228,-23.31216612,0 -51.95531717,-23.31214283,0 -51.95541153,-23.31206791,0 -51.95559555,-23.31191180,0 -51.95622396,-23.31140339,0 -51.95712372,-23.31065532,0 -51.95725572,-23.31054330,0 -51.95736909,-23.31043465,0 -51.95743471,-23.31039184,0 -51.95765319,-23.31021705,0 -51.95792976,-23.30998509,0 -51.95796054,-23.30995750,0 -51.95798605,-23.30992879,0 -51.95805020,-23.30988326,0 -51.95834770,-23.30964653,0 -51.95879495,-23.30927540,0 -51.95905705,-23.30905354,0 -51.95913939,-23.30897291,0 -51.95920646,-23.30892914,0 -51.95923868,-23.30890437,0 -51.96034209,-23.30799169,0 -51.96043434,-23.30791120,0 -51.96046290,-23.30788203,0 -51.96056229,-23.30781270,0 -51.96142301,-23.30711600,0 -51.96188740,-23.30672705,0 -51.96200112,-23.30662188,0 -51.96202985,-23.30659239,0 -51.96205378,-23.30656149,0 -51.96207364,-23.30652342,0 -51.96208556,-23.30648860,0 -51.96210403,-23.30641059,0 -51.96210844,-23.30637349,0 -51.96210494,-23.30633529,0 -51.96209491,-23.30629927,0 -51.96208005,-23.30626305,0 -51.96204070,-23.30619450,0 -51.96202331,-23.30615609,0 -51.96199776,-23.30608457,0 -51.96193310,-23.30597714,0 -51.96188047,-23.30587734,0 -51.96183966,-23.30581377,0 -51.96179497,-23.30575142,0 -51.96167551,-23.30560195,0 -51.96165072,-23.30556332,0 -51.96162873,-23.30552256,0 -51.96161255,-23.30548155,0 -51.96154260,-23.30524719,0 -51.96149948,-23.30514514,0 -51.96146543,-23.30507879,0 -51.96142642,-23.30501291,0 -51.96138060,-23.30495205,0 -51.96132606,-23.30488725,0 -51.96130271,-23.30484889,0 -51.96127186,-23.30477399,0 -51.96125072,-23.30473185,0 -51.96120447,-23.30467032,0 -51.96115429,-23.30461244,0 -51.96087946,-23.30433594,0 -51.96064450,-23.30407826,0 -51.96058971,-23.30402324,0 -51.96047392,-23.30391783,0 -51.96025357,-23.30374412,0 -51.96019262,-23.30368571,0 -51.96010539,-23.30361117,0 -51.95990066,-23.30342341,0 -51.95963134,-23.30321643,0 -51.95949268,-23.30309963,0 -51.95946533,-23.30306734,0 -51.95938992,-23.30295989,0 -51.95936285,-23.30293166,0 -51.95933349,-23.30290610,0 -51.95926785,-23.30285812,0 -51.95923330,-23.30283624,0 -51.95912410,-23.30277608,0 -51.95898395,-23.30268770,0 -51.95891994,-23.30263881,0 -51.95888898,-23.30261095,0 -51.95883753,-23.30255339,0 -51.95876700,-23.30245792,0 -51.95871761,-23.30239605,0 -51.95866361,-23.30233640,0 -51.95854413,-23.30222677,0 -51.95834981,-23.30206342,0 -51.95832082,-23.30203465,0 -51.95829701,-23.30200254,0 -51.95827742,-23.30196870,0 -51.95821962,-23.30181940,0 -51.95817830,-23.30174781,0 -51.95812974,-23.30167946,0 -51.95810268,-23.30164723,0 -51.95801244,-23.30155542,0 -51.95787465,-23.30144985,0 -51.95776459,-23.30137599,0 -51.95765229,-23.30131155,0 -51.95755169,-23.30123105,0 -51.95751577,-23.30120642,0 -51.95747709,-23.30118418,0 -51.95739690,-23.30114573,0 -51.95718592,-23.30106174,0 -51.95714816,-23.30104279,0 -51.95711179,-23.30102127,0 -51.95693394,-23.30090280,0 -51.95689528,-23.30088287,0 -51.95681498,-23.30084896,0 -51.95669570,-23.30080946,0 -51.95665185,-23.30080246,0 -51.95661306,-23.30080742,0 -51.95654114,-23.30084437,0 -51.95647139,-23.30088601,0 -51.95643535,-23.30090926,0 -51.95637290,-23.30095603,0 -51.95619030,-23.30112186,0 -51.95606507,-23.30122175,0 -51.95580469,-23.30143934,0 -51.95570793,-23.30152666,0 -51.95546378,-23.30171203,0 -51.95508699,-23.30202143,0 -51.95490624,-23.30216145,0 -51.95473018,-23.30230543,0 -51.95392436,-23.30294383,0 -51.95373096,-23.30309185,0 -51.95357652,-23.30321702,0 -51.95354534,-23.30323937,0 -51.95343141,-23.30334219,0</coordinates></LinearRing></outerBoundaryIs>

      </Polygon>
    </Placemark>
    <Placemark>
      <name>linha_bordadura pulve 1</name>
      <Style><LineStyle><color>ff000000</color><width>3</width></LineStyle></Style>
      <ExtendedData>
        <Data name="camada"><value>linha_bordadura pulve</value></Data>
        <Data name="classificacao"><value>linha_bordadura pulve</value></Data>
      </ExtendedData>
      <LineString><tessellate>1</tessellate><coordinates>-51.95670621,-23.30098628,0 -51.95667480,-23.30098031,0 -51.95663522,-23.30098556,0 -51.95657452,-23.30101810,0 -51.95648755,-23.30108006,0 -51.95631093,-23.30124032,0 -51.95595436,-23.30153387,0 -51.95581215,-23.30165776,0 -51.95551230,-23.30188968,0 -51.95522000,-23.30212974,0 -51.95365887,-23.30336379,0 -51.95323643,-23.30373313,0 -51.95286393,-23.30403099,0 -51.95258212,-23.30428144,0 -51.95229581,-23.30452757,0 -51.95215846,-23.30465606,0 -51.95211211,-23.30470627,0 -51.95210026,-23.30472717,0 -51.95209578,-23.30475630,0 -51.95210538,-23.30481696,0 -51.95210329,-23.30488031,0 -51.95207682,-23.30499484,0 -51.95202859,-23.30513761,0 -51.95193636,-23.30533139,0 -51.95186280,-23.30549876,0 -51.95182473,-23.30561751,0 -51.95180792,-23.30574312,0 -51.95177281,-23.30589637,0 -51.95174881,-23.30621097,0 -51.95175027,-23.30650218,0 -51.95172349,-23.30689621,0 -51.95170456,-23.30701482,0 -51.95168951,-23.30729236,0 -51.95167676,-23.30739217,0 -51.95167320,-23.30758293,0 -51.95164950,-23.30770486,0 -51.95164351,-23.30783131,0 -51.95162616,-23.30851041,0 -51.95164999,-23.30867092,0 -51.95164016,-23.30891314,0 -51.95165210,-23.30901497,0 -51.95167155,-23.30909107,0 -51.95169673,-23.30914954,0 -51.95176200,-23.30925049,0 -51.95181055,-23.30934416,0 -51.95183475,-23.30941748,0 -51.95184132,-23.30947804,0 -51.95182837,-23.30963094,0 -51.95181388,-23.30968010,0 -51.95178623,-23.30981582,0 -51.95176276,-23.31001185,0 -51.95174883,-23.31056687,0 -51.95176027,-23.31073034,0 -51.95180377,-23.31103384,0 -51.95182269,-23.31134066,0 -51.95185078,-23.31157374,0 -51.95188262,-23.31193380,0 -51.95191279,-23.31211224,0 -51.95192387,-23.31223039,0 -51.95192305,-23.31234955,0 -51.95193690,-23.31247233,0 -51.95193787,-23.31252537,0 -51.95194133,-23.31255259,0 -51.95207344,-23.31292599,0 -51.95212806,-23.31305593,0 -51.95216406,-23.31322884,0 -51.95220055,-23.31333794,0 -51.95222279,-23.31338357,0 -51.95238507,-23.31365635,0 -51.95255410,-23.31387537,0 -51.95257985,-23.31391784,0 -51.95259787,-23.31395809,0 -51.95260877,-23.31399039,0 -51.95261982,-23.31406680,0 -51.95262502,-23.31408197,0 -51.95264274,-23.31409911,0 -51.95265891,-23.31410461,0 -51.95268444,-23.31410218,0 -51.95269906,-23.31409375,0 -51.95293836,-23.31389167,0 -51.95302423,-23.31380989,0 -51.95319458,-23.31368258,0 -51.95369982,-23.31327060,0 -51.95486306,-23.31230407,0 -51.95503624,-23.31215598,0 -51.95512104,-23.31206924,0 -51.95514222,-23.31205152,0 -51.95521277,-23.31201080,0 -51.95529812,-23.31194342,0 -51.95558844,-23.31170133,0 -51.95617614,-23.31122439,0 -51.95704793,-23.31049886,0 -51.95713451,-23.31042538,0 -51.95725557,-23.31031073,0 -51.95733602,-23.31025571,0 -51.95748386,-23.31013743,0 -51.95781026,-23.30986527,0 -51.95786220,-23.30981305,0 -51.95791713,-23.30977272,0 -51.95821442,-23.30953798,0 -51.95879562,-23.30905431,0 -51.95893947,-23.30893194,0 -51.95902126,-23.30885261,0 -51.95912704,-23.30877842,0 -51.95966919,-23.30833187,0 -51.96010550,-23.30796954,0 -51.96024970,-23.30784755,0 -51.96033800,-23.30776713,0 -51.96044919,-23.30768805,0 -51.96127996,-23.30701555,0 -51.96182162,-23.30655994,0 -51.96188825,-23.30649264,0 -51.96190913,-23.30645748,0 -51.96192305,-23.30640461,0 -51.96192409,-23.30636421,0 -51.96191481,-23.30633003,0 -51.96185246,-23.30619669,0 -51.96183098,-23.30614114,0 -51.96171041,-23.30593049,0 -51.96167308,-23.30587661,0 -51.96152329,-23.30568289,0 -51.96146161,-23.30557382,0 -51.96144482,-23.30553125,0 -51.96137577,-23.30530003,0 -51.96134608,-23.30522903,0 -51.96129392,-23.30512679,0 -51.96125533,-23.30506943,0 -51.96118121,-23.30497943,0 -51.96114499,-23.30492077,0 -51.96109892,-23.30481799,0 -51.96105718,-23.30476043,0 -51.96102151,-23.30471925,0 -51.96079560,-23.30449196,0 -51.96051216,-23.30418551,0 -51.96035386,-23.30403678,0 -51.96011496,-23.30384631,0 -51.95978338,-23.30354469,0 -51.95953974,-23.30335751,0 -51.95936030,-23.30320649,0 -51.95932725,-23.30316817,0 -51.95925033,-23.30306091,0 -51.95922234,-23.30303331,0 -51.95913462,-23.30297126,0 -51.95902819,-23.30291245,0 -51.95888174,-23.30281983,0 -51.95875827,-23.30271921,0 -51.95868287,-23.30263248,0 -51.95862342,-23.30255201,0 -51.95852809,-23.30244130,0 -51.95819264,-23.30214448,0 -51.95815883,-23.30209987,0 -51.95811698,-23.30203401,0 -51.95805194,-23.30187408,0 -51.95802583,-23.30182983,0 -51.95796189,-23.30174573,0 -51.95789792,-23.30168046,0 -51.95776857,-23.30157959,0 -51.95770066,-23.30153397,0 -51.95753760,-23.30143447,0 -51.95744307,-23.30135953,0 -51.95738428,-23.30132283,0 -51.95732329,-23.30129346,0 -51.95711093,-23.30120865,0 -51.95703232,-23.30116633,0 -51.95683750,-23.30103970,0 -51.95678881,-23.30101578,0 -51.95670621,-23.30098628,0</coordinates></LineString>
    </Placemark>
    <Placemark>
      <name>mesclado - 22-09-2026 - 23-32-28 1</name>
      <Style><LineStyle><color>ff2d5291</color><width>3</width></LineStyle></Style>
      <ExtendedData>
        <Data name="camada"><value>mesclado - 22-09-2026 - 23-32-28</value></Data>
        <Data name="classificacao"><value>mesclado - 22-09-2026 - 23-32-28</value></Data>
      </ExtendedData>
      <LineString><tessellate>1</tessellate><coordinates>-51.95533721,-23.31191023,0 -51.95531428,-23.31175059,0 -51.95529523,-23.31157081,0 -51.95528180,-23.31139060,0 -51.95526698,-23.31102960,0 -51.95526191,-23.31066835,0 -51.95525893,-23.30976516,0 -51.95522677,-23.30850104,0 -51.95522550,-23.30813977,0 -51.95522981,-23.30795918,0 -51.95524777,-23.30759829,0 -51.95526070,-23.30741806,0 -51.95527805,-23.30723814,0 -51.95531518,-23.30697568,0 -51.95537678,-23.30670444,0 -51.95542631,-23.30652972,0 -51.95552957,-23.30618588,0</coordinates></LineString>
    </Placemark>
    <Placemark>
      <name>mesclado - 22-09-2026 - 23-32-28 2</name>
      <Style><LineStyle><color>ff2d5291</color><width>3</width></LineStyle></Style>
      <ExtendedData>
        <Data name="camada"><value>mesclado - 22-09-2026 - 23-32-28</value></Data>
        <Data name="classificacao"><value>mesclado - 22-09-2026 - 23-32-28</value></Data>
      </ExtendedData>
      <LineString><tessellate>1</tessellate><coordinates>-51.95565710,-23.31164580,0 -51.95564368,-23.31151258,0 -51.95563118,-23.31133231,0 -51.95561789,-23.31097126,0 -51.95561374,-23.31061001,0 -51.95561006,-23.30970682,0 -51.95557807,-23.30844270,0 -51.95557863,-23.30808144,0 -51.95558440,-23.30790088,0 -51.95560420,-23.30754008,0 -51.95561874,-23.30735994,0 -51.95563869,-23.30718025,0 -51.95566842,-23.30700174,0 -51.95573230,-23.30672733,0 -51.95584873,-23.30633961,0</coordinates></LineString>
    </Placemark>
    <Placemark>
      <name>mesclado - 22-09-2026 - 23-32-28 3</name>
      <Style><LineStyle><color>ff2d5291</color><width>3</width></LineStyle></Style>
      <ExtendedData>
        <Data name="camada"><value>mesclado - 22-09-2026 - 23-32-28</value></Data>
        <Data name="classificacao"><value>mesclado - 22-09-2026 - 23-32-28</value></Data>
      </ExtendedData>
      <LineString><tessellate>1</tessellate><coordinates>-51.95598727,-23.31137873,0 -51.95597318,-23.31109352,0 -51.95596880,-23.31091293,0 -51.95596386,-23.30982911,0 -51.95595721,-23.30946788,0 -51.95593209,-23.30856498,0 -51.95592883,-23.30820372,0 -51.95593183,-23.30802311,0 -51.95594898,-23.30766218,0 -51.95596153,-23.30748192,0 -51.95597875,-23.30730199,0 -51.95600349,-23.30712284,0 -51.95603930,-23.30694529,0 -51.95608492,-23.30676967,0 -51.95615691,-23.30652993,0</coordinates></LineString>
    </Placemark>
    <Placemark>
      <name>mesclado - 22-09-2026 - 23-32-28 4</name>
      <Style><LineStyle><color>ff2d5291</color><width>3</width></LineStyle></Style>
      <ExtendedData>
        <Data name="camada"><value>mesclado - 22-09-2026 - 23-32-28</value></Data>
        <Data name="classificacao"><value>mesclado - 22-09-2026 - 23-32-28</value></Data>
      </ExtendedData>
      <LineString><tessellate>1</tessellate><coordinates>-51.95632577,-23.31109999,0 -51.95631809,-23.31067396,0 -51.95631529,-23.30977077,0 -51.95630794,-23.30940955,0 -51.95628306,-23.30850665,0 -51.95628168,-23.30814538,0 -51.95628643,-23.30796481,0 -51.95630542,-23.30760396,0 -51.95631957,-23.30742380,0 -51.95634012,-23.30724419,0 -51.95635650,-23.30714022,0 -51.95637230,-23.30706606,0 -51.95641435,-23.30688966,0 -51.95645392,-23.30675755,0</coordinates></LineString>
    </Placemark>
    <Placemark>
      <name>mesclado - 22-09-2026 - 23-32-28 5</name>
      <Style><LineStyle><color>ff2d5291</color><width>3</width></LineStyle></Style>
      <ExtendedData>
        <Data name="camada"><value>mesclado - 22-09-2026 - 23-32-28</value></Data>
        <Data name="classificacao"><value>mesclado - 22-09-2026 - 23-32-28</value></Data>
      </ExtendedData>
      <LineString><tessellate>1</tessellate><coordinates>-51.95667158,-23.31081248,0 -51.95666642,-23.30971243,0 -51.95663771,-23.30862892,0 -51.95663299,-23.30826767,0 -51.95663481,-23.30808705,0 -51.95665019,-23.30772606,0 -51.95666236,-23.30754578,0 -51.95667945,-23.30736584,0 -51.95670536,-23.30718684,0 -51.95674143,-23.30702845,0</coordinates></LineString>
    </Placemark>
    <Placemark>
      <name>mesclado - 22-09-2026 - 23-32-28 6</name>
      <Style><LineStyle><color>ff2d5291</color><width>3</width></LineStyle></Style>
      <ExtendedData>
        <Data name="camada"><value>mesclado - 22-09-2026 - 23-32-28</value></Data>
        <Data name="classificacao"><value>mesclado - 22-09-2026 - 23-32-28</value></Data>
      </ExtendedData>
      <LineString><tessellate>1</tessellate><coordinates>-51.95702171,-23.31052065,0 -51.95702120,-23.31001535,0 -51.95701755,-23.30965409,0 -51.95698856,-23.30857058,0 -51.95698498,-23.30820933,0 -51.95698845,-23.30802872,0 -51.95700663,-23.30766784,0 -51.95702040,-23.30748766,0 -51.95703866,-23.30733265,0</coordinates></LineString>
    </Placemark>
    <Placemark>
      <name>mesclado - 22-09-2026 - 23-32-28 7</name>
      <Style><LineStyle><color>ff2d5291</color><width>3</width></LineStyle></Style>
      <ExtendedData>
        <Data name="camada"><value>mesclado - 22-09-2026 - 23-32-28</value></Data>
        <Data name="classificacao"><value>mesclado - 22-09-2026 - 23-32-28</value></Data>
      </ExtendedData>
      <LineString><tessellate>1</tessellate><coordinates>-51.95737356,-23.31022567,0 -51.95736868,-23.30959575,0 -51.95734347,-23.30869285,0 -51.95733714,-23.30833162,0 -51.95733786,-23.30815099,0 -51.95734305,-23.30797042,0 -51.95736012,-23.30765808,0</coordinates></LineString>
    </Placemark>
    <Placemark>
      <name>mesclado - 22-09-2026 - 23-32-28 8</name>
      <Style><LineStyle><color>ff2d5291</color><width>3</width></LineStyle></Style>
      <ExtendedData>
        <Data name="camada"><value>mesclado - 22-09-2026 - 23-32-28</value></Data>
        <Data name="classificacao"><value>mesclado - 22-09-2026 - 23-32-28</value></Data>
      </ExtendedData>
      <LineString><tessellate>1</tessellate><coordinates>-51.95772482,-23.30993737,0 -51.95771952,-23.30953741,0 -51.95769065,-23.30845391,0 -51.95768913,-23.30827328,0 -51.95769099,-23.30809265,0 -51.95769527,-23.30798023,0</coordinates></LineString>
    </Placemark>
    <Placemark>
      <name>mesclado - 22-09-2026 - 23-32-28 9</name>
      <Style><LineStyle><color>ff2d5291</color><width>3</width></LineStyle></Style>
      <ExtendedData>
        <Data name="camada"><value>mesclado - 22-09-2026 - 23-32-28</value></Data>
        <Data name="classificacao"><value>mesclado - 22-09-2026 - 23-32-28</value></Data>
      </ExtendedData>
      <LineString><tessellate>1</tessellate><coordinates>-51.95807372,-23.30964992,0 -51.95804504,-23.30857618,0 -51.95804158,-23.30831426,0</coordinates></LineString>
    </Placemark>
    <Placemark>
      <name>mesclado - 22-09-2026 - 23-32-28 10</name>
      <Style><LineStyle><color>ff2d5291</color><width>3</width></LineStyle></Style>
      <ExtendedData>
        <Data name="camada"><value>mesclado - 22-09-2026 - 23-32-28</value></Data>
        <Data name="classificacao"><value>mesclado - 22-09-2026 - 23-32-28</value></Data>
      </ExtendedData>
      <LineString><tessellate>1</tessellate><coordinates>-51.95841961,-23.30936831,0 -51.95839958,-23.30867561,0</coordinates></LineString>
    </Placemark>
    <Placemark>
      <name>mesclado - 22-09-2026 - 23-32-28 11</name>
      <Style><LineStyle><color>ff2d5291</color><width>3</width></LineStyle></Style>
      <ExtendedData>
        <Data name="camada"><value>mesclado - 22-09-2026 - 23-32-28</value></Data>
        <Data name="classificacao"><value>mesclado - 22-09-2026 - 23-32-28 - Linha de plantio</value></Data>
      </ExtendedData>
      <LineString><tessellate>1</tessellate><coordinates>-51.95652677,-23.30105142,0 -51.95674750,-23.30109415,0 -51.95701855,-23.30116260,0 -51.95704371,-23.30117253,0 -51.95711135,-23.30120882,0 -51.95732317,-23.30129341,0 -51.95738214,-23.30132180,0 -51.95744379,-23.30136010,0 -51.95753888,-23.30143526,0 -51.95769880,-23.30153283,0 -51.95776844,-23.30157951,0 -51.95789697,-23.30167968,0 -51.95792816,-23.30171206,0 -51.95794187,-23.30173386,0 -51.95794733,-23.30175847,0 -51.95794013,-23.30178255,0 -51.95792699,-23.30179578,0 -51.95790588,-23.30180493,0 -51.95788261,-23.30180715,0 -51.95785569,-23.30180291,0 -51.95757453,-23.30168894,0 -51.95739288,-23.30162211,0 -51.95720936,-23.30155976,0 -51.95702359,-23.30150329,0 -51.95683567,-23.30145342,0 -51.95664674,-23.30140686,0 -51.95634126,-23.30134773,0 -51.95630045,-23.30134204,0 -51.95627322,-23.30134373,0 -51.95622746,-23.30135331,0 -51.95617530,-23.30136865,0 -51.95613952,-23.30138315,0 -51.95601042,-23.30148812,0 -51.95599832,-23.30150227,0 -51.95598957,-23.30151839,0 -51.95598351,-23.30155023,0 -51.95598568,-23.30156815,0 -51.95599162,-23.30158533,0 -51.95600111,-23.30160109,0 -51.95601380,-23.30161479,0 -51.95603260,-23.30162767,0 -51.95605803,-23.30163683,0 -51.95629151,-23.30167032,0 -51.95658246,-23.30172664,0 -51.95686169,-23.30179703,0 -51.95713353,-23.30187901,0 -51.95741398,-23.30197922,0 -51.95759377,-23.30205029,0 -51.95777109,-23.30212648,0 -51.95794586,-23.30220755,0 -51.95811828,-23.30229282,0 -51.95828818,-23.30238226,0 -51.95845572,-23.30247545,0 -51.95863964,-23.30258353,0 -51.95865933,-23.30260098,0 -51.95868386,-23.30263362,0 -51.95875733,-23.30271814,0 -51.95888032,-23.30281869,0 -51.95902867,-23.30291272,0 -51.95913597,-23.30297222,0 -51.95922284,-23.30303381,0 -51.95925191,-23.30306307,0 -51.95932752,-23.30316848,0 -51.95936185,-23.30320785,0 -51.95954119,-23.30335862,0 -51.95978466,-23.30354586,0 -51.96011352,-23.30384500,0 -51.96035326,-23.30403631,0 -51.96051233,-23.30418571,0 -51.96079433,-23.30449061,0 -51.96102176,-23.30471954,0 -51.96105828,-23.30476195,0 -51.96109941,-23.30481909,0 -51.96114430,-23.30491923,0 -51.96118092,-23.30497895,0 -51.96125426,-23.30506813,0 -51.96129532,-23.30512960,0 -51.96130386,-23.30515357,0 -51.96130545,-23.30517872,0 -51.96129967,-23.30519964,0 -51.96128692,-23.30521772,0 -51.96126131,-23.30523391,0 -51.96124630,-23.30523788,0 -51.96122682,-23.30523889,0 -51.96119297,-23.30523068,0 -51.96116100,-23.30521014,0 -51.96061582,-23.30468530,0 -51.96009189,-23.30414873,0 -51.95982196,-23.30388729,0 -51.95968320,-23.30376000,0 -51.95954143,-23.30363556,0 -51.95939640,-23.30351440,0 -51.95924795,-23.30339682,0 -51.95909610,-23.30328303,0 -51.95894088,-23.30317316,0 -51.95862253,-23.30296328,0 -51.95845982,-23.30286307,0 -51.95829488,-23.30276602,0 -51.95812762,-23.30267242,0 -51.95795793,-23.30258262,0 -51.95778567,-23.30249710,0 -51.95761080,-23.30241622,0 -51.95743345,-23.30234008,0 -51.95725342,-23.30226951,0 -51.95707084,-23.30220480,0 -51.95677271,-23.30211164,0 -51.95651037,-23.30204551,0 -51.95621639,-23.30198799,0 -51.95612678,-23.30197549,0 -51.95593314,-23.30195037,0 -51.95573855,-23.30193249,0 -51.95557212,-23.30192347,0 -51.95552650,-23.30193323,0 -51.95545646,-23.30195614,0 -51.95540676,-23.30197725,0 -51.95527266,-23.30208791,0 -51.95525559,-23.30211614,0 -51.95525115,-23.30213370,0 -51.95525036,-23.30215173,0 -51.95525895,-23.30218679,0 -51.95527988,-23.30221708,0 -51.95530792,-23.30223644,0 -51.95533782,-23.30224446,0 -51.95557249,-23.30224901,0 -51.95576758,-23.30226130,0 -51.95596192,-23.30228134,0 -51.95615528,-23.30230838,0 -51.95641742,-23.30235912,0 -51.95667128,-23.30242312,0 -51.95690982,-23.30249615,0 -51.95709268,-23.30256020,0 -51.95727289,-23.30263036,0 -51.95745051,-23.30270596,0 -51.95762548,-23.30278664,0 -51.95779758,-23.30287244,0 -51.95796706,-23.30296257,0 -51.95813404,-23.30305658,0 -51.95829866,-23.30315411,0 -51.95846068,-23.30325527,0 -51.95877812,-23.30346632,0 -51.95893232,-23.30357743,0 -51.95908247,-23.30369316,0 -51.95922917,-23.30381260,0 -51.95937249,-23.30393548,0 -51.95951265,-23.30406146,0 -51.95964995,-23.30419009,0 -51.95991732,-23.30445377,0 -51.96030923,-23.30485706,0 -51.96044187,-23.30498980,0 -51.96111928,-23.30564118,0 -51.96138540,-23.30590595,0 -51.96151624,-23.30604022,0 -51.96164521,-23.30617600,0 -51.96184840,-23.30639873,0 -51.96186070,-23.30642126,0 -51.96186841,-23.30644922,0 -51.96186999,-23.30647803,0 -51.96186467,-23.30650644,0 -51.96185255,-23.30652898,0 -51.96182065,-23.30656076,0 -51.96173396,-23.30663381,0 -51.96171469,-23.30664609,0 -51.96168898,-23.30665456,0 -51.96165785,-23.30665577,0 -51.96162787,-23.30664792,0 -51.96160501,-23.30663417,0 -51.96133967,-23.30634691,0 -51.96121007,-23.30621163,0 -51.96094567,-23.30594539,0 -51.96013437,-23.30516234,0 -51.95974209,-23.30475936,0 -51.95947706,-23.30449367,0 -51.95934138,-23.30436357,0 -51.95920298,-23.30423594,0 -51.95906141,-23.30411132,0 -51.95891630,-23.30399023,0 -51.95876734,-23.30387320,0 -51.95861437,-23.30376069,0 -51.95845798,-23.30365223,0 -51.95829877,-23.30354733,0 -51.95813727,-23.30344547,0 -51.95797321,-23.30334715,0 -51.95780649,-23.30325272,0 -51.95763722,-23.30316225,0 -51.95746528,-23.30307620,0 -51.95729021,-23.30299570,0 -51.95711234,-23.30292065,0 -51.95693166,-23.30285155,0 -51.95674829,-23.30278884,0 -51.95656240,-23.30273272,0 -51.95637373,-23.30268516,0 -51.95609151,-23.30262826,0 -51.95588791,-23.30259986,0 -51.95570323,-23.30258201,0 -51.95552276,-23.30257199,0 -51.95540623,-23.30257013,0 -51.95521071,-23.30257222,0 -51.95501548,-23.30258253,0 -51.95482104,-23.30260180,0 -51.95460143,-23.30263420,0 -51.95457919,-23.30264094,0 -51.95455932,-23.30265238,0 -51.95435421,-23.30281440,0 -51.95434086,-23.30282756,0 -51.95433080,-23.30284301,0 -51.95432447,-23.30286007,0 -51.95432177,-23.30288155,0 -51.95432388,-23.30290311,0 -51.95433161,-23.30292732,0 -51.95434220,-23.30294664,0 -51.95435613,-23.30296406,0 -51.95437320,-23.30297888,0 -51.95439319,-23.30299015,0 -51.95441936,-23.30299725,0 -51.95444275,-23.30299708,0 -51.95465721,-23.30295484,0 -51.95485030,-23.30292639,0 -51.95504467,-23.30290662,0 -51.95523993,-23.30289682,0 -51.95534793,-23.30289440,0 -51.95550915,-23.30289697,0 -51.95563080,-23.30290373,0 -51.95582547,-23.30292075,0 -51.95601895,-23.30294697,0 -51.95625237,-23.30299161,0 -51.95646841,-23.30304607,0 -51.95666355,-23.30310539,0 -51.95695178,-23.30321094,0 -51.95712992,-23.30328544,0 -51.95730505,-23.30336580,0 -51.95747687,-23.30345207,0 -51.95764593,-23.30354288,0 -51.95781232,-23.30363778,0 -51.95797574,-23.30373700,0 -51.95813686,-23.30383940,0 -51.95829522,-23.30394539,0 -51.95845059,-23.30405508,0 -51.95860186,-23.30416953,0 -51.95874907,-23.30428843,0 -51.95889247,-23.30441124,0 -51.95903243,-23.30453740,0 -51.95916933,-23.30466640,0 -51.95943556,-23.30493107,0 -51.95982743,-23.30533440,0 -51.95996099,-23.30546634,0 -51.96050368,-23.30598678,0 -51.96090361,-23.30638328,0 -51.96116208,-23.30665444,0 -51.96133882,-23.30684946,0 -51.96134886,-23.30686492,0 -51.96135622,-23.30688545,0 -51.96135848,-23.30690337,0 -51.96135663,-23.30692494,0 -51.96134658,-23.30695220,0 -51.96133077,-23.30697275,0 -51.96119847,-23.30707985,0 -51.96116970,-23.30709089,0 -51.96113862,-23.30709308,0 -51.96110836,-23.30708624,0 -51.96108496,-23.30707326,0 -51.96085674,-23.30682517,0 -51.96059697,-23.30655508,0 -51.96033056,-23.30629056,0 -51.95965316,-23.30563917,0 -51.95912891,-23.30510287,0 -51.95899606,-23.30497031,0 -51.95886081,-23.30483984,0 -51.95872276,-23.30471189,0 -51.95858139,-23.30458708,0 -51.95843620,-23.30446607,0 -51.95828673,-23.30434957,0 -51.95813246,-23.30423855,0 -51.95797453,-23.30413201,0 -51.95781422,-23.30402854,0 -51.95765116,-23.30392882,0 -51.95748536,-23.30383303,0 -51.95731652,-23.30374189,0 -51.95714483,-23.30365539,0 -51.95696962,-23.30357517,0 -51.95679122,-23.30350122,0 -51.95654606,-23.30341198,0 -51.95636697,-23.30335755,0 -51.95616985,-23.30330785,0 -51.95596664,-23.30326852,0 -51.95585409,-23.30325282,0 -51.95565990,-23.30323168,0 -51.95546468,-23.30322146,0 -51.95534916,-23.30321962,0 -51.95526915,-23.30322141,0 -51.95507387,-23.30323071,0 -51.95487957,-23.30325097,0 -51.95468663,-23.30328035,0 -51.95449587,-23.30332002,0 -51.95430755,-23.30336865,0 -51.95412271,-23.30342759,0 -51.95394144,-23.30349529,0 -51.95376488,-23.30357293,0 -51.95359362,-23.30366006,0 -51.95342833,-23.30375655,0 -51.95327025,-23.30386282,0 -51.95311905,-23.30397735,0 -51.95297664,-23.30410111,0 -51.95284223,-23.30423228,0 -51.95271647,-23.30437057,0 -51.95259970,-23.30451546,0 -51.95249144,-23.30466589,0 -51.95239289,-23.30482187,0 -51.95230408,-23.30498277,0 -51.95222403,-23.30514756,0 -51.95215286,-23.30531579,0 -51.95208918,-23.30548657,0 -51.95203281,-23.30565954,0 -51.95198226,-23.30583403,0 -51.95193664,-23.30600968,0 -51.95189499,-23.30618618,0 -51.95185731,-23.30636343,0 -51.95182497,-23.30654157,0 -51.95179821,-23.30672051,0 -51.95177598,-23.30689997,0 -51.95175779,-23.30707983,0 -51.95173108,-23.30744025,0 -51.95171284,-23.30780114,0 -51.95170712,-23.30798170,0 -51.95170428,-23.30834296,0 -51.95171411,-23.30888479,0 -51.95172417,-23.30918131,0 -51.95173297,-23.30920517,0 -51.95176271,-23.30925187,0 -51.95181001,-23.30934312,0 -51.95183414,-23.30941562,0 -51.95184117,-23.30947666,0 -51.95182821,-23.30963150,0 -51.95181384,-23.30968030,0 -51.95178635,-23.30981522,0 -51.95176274,-23.31001272,0 -51.95174886,-23.31056534,0 -51.95176008,-23.31072758,0 -51.95180389,-23.31103562,0 -51.95182257,-23.31133861,0 -51.95185057,-23.31157200,0 -51.95188246,-23.31193207,0 -51.95191297,-23.31211415,0 -51.95192377,-23.31222933,0 -51.95192305,-23.31234855,0 -51.95193672,-23.31247073,0 -51.95193786,-23.31252490,0 -51.95194167,-23.31255357,0 -51.95207289,-23.31292445,0 -51.95212801,-23.31305581,0 -51.95216432,-23.31322963,0 -51.95220012,-23.31333664,0 -51.95222242,-23.31338282,0 -51.95227791,-23.31347416,0 -51.95229656,-23.31349258,0 -51.95232012,-23.31350525,0 -51.95234694,-23.31350948,0 -51.95236986,-23.31350530,0 -51.95239000,-23.31349438,0 -51.95240754,-23.31347512,0 -51.95241747,-23.31345166,0 -51.95242019,-23.31342656,0 -51.95241798,-23.31340650,0 -51.95228481,-23.31278952,0 -51.95221810,-23.31243355,0 -51.95218974,-23.31225482,0 -51.95216516,-23.31207562,0 -51.95214525,-23.31189592,0 -51.95212929,-23.31171589,0 -51.95210771,-23.31135518,0 -51.95210111,-23.31117464,0 -51.95209443,-23.31081342,0 -51.95208972,-23.30972960,0 -51.95206039,-23.30864610,0 -51.95205601,-23.30828484,0 -51.95205708,-23.30810420,0 -51.95206767,-23.30774307,0 -51.95208735,-23.30738226,0 -51.95211674,-23.30702201,0 -51.95213692,-23.30684234,0 -51.95216166,-23.30666316,0 -51.95219153,-23.30648465,0 -51.95222743,-23.30630708,0 -51.95226813,-23.30613040,0 -51.95231262,-23.30595450,0 -51.95236198,-23.30577971,0 -51.95241748,-23.30560651,0 -51.95248036,-23.30543548,0 -51.95255151,-23.30526725,0 -51.95263212,-23.30510271,0 -51.95272270,-23.30494265,0 -51.95282484,-23.30478865,0 -51.95293634,-23.30464027,0 -51.95305765,-23.30449862,0 -51.95318899,-23.30436481,0 -51.95333003,-23.30423973,0 -51.95348011,-23.30412399,0 -51.95363847,-23.30401809,0 -51.95380438,-23.30392251,0 -51.95397734,-23.30383825,0 -51.95415593,-23.30376472,0 -51.95433907,-23.30370148,0 -51.95452602,-23.30364855,0 -51.95471622,-23.30360665,0 -51.95490883,-23.30357556,0 -51.95510307,-23.30355480,0 -51.95529837,-23.30354601,0 -51.95549389,-23.30354760,0 -51.95561655,-23.30355442,0 -51.95575404,-23.30356770,0 -51.95588261,-23.30358564,0 -51.95607424,-23.30362156,0 -51.95626311,-23.30366841,0 -51.95644860,-23.30372559,0 -51.95663065,-23.30379151,0 -51.95680932,-23.30386491,0 -51.95698461,-23.30394499,0 -51.95715616,-23.30403170,0 -51.95732478,-23.30412320,0 -51.95749000,-23.30421985,0 -51.95765250,-23.30432035,0 -51.95781220,-23.30442461,0 -51.95796885,-23.30453274,0 -51.95812125,-23.30464590,0 -51.95826896,-23.30476427,0 -51.95841244,-23.30488700,0 -51.95855221,-23.30501335,0 -51.95868834,-23.30514304,0 -51.95895371,-23.30540844,0 -51.95934589,-23.30581151,0 -51.96002280,-23.30646332,0 -51.96029017,-23.30672702,0 -51.96055127,-23.30699602,0 -51.96080848,-23.30727718,0 -51.96082520,-23.30730559,0 -51.96083019,-23.30734121,0 -51.96082259,-23.30737281,0 -51.96080396,-23.30740019,0 -51.96066817,-23.30750909,0 -51.96063936,-23.30752005,0 -51.96060828,-23.30752206,0 -51.96057807,-23.30751498,0 -51.96055480,-23.30750182,0 -51.96024551,-23.30716709,0 -51.95998311,-23.30689918,0 -51.95971487,-23.30663623,0 -51.95917216,-23.30611582,0 -51.95903903,-23.30598350,0 -51.95851489,-23.30544710,0 -51.95838023,-23.30531611,0 -51.95824254,-23.30518783,0 -51.95810136,-23.30506283,0 -51.95795577,-23.30494224,0 -51.95780507,-23.30482713,0 -51.95764956,-23.30471762,0 -51.95749059,-23.30461241,0 -51.95732883,-23.30451089,0 -51.95716394,-23.30441377,0 -51.95699580,-23.30432152,0 -51.95682438,-23.30423459,0 -51.95664902,-23.30415465,0 -51.95647009,-23.30408179,0 -51.95628720,-23.30401791,0 -51.95616410,-23.30398050,0 -51.95600480,-23.30394034,0 -51.95584176,-23.30390878,0 -51.95571775,-23.30389148,0 -51.95558766,-23.30387855,0 -51.95546833,-23.30387192,0 -51.95532760,-23.30387060,0 -51.95513227,-23.30387889,0 -51.95493809,-23.30390015,0 -51.95474593,-23.30393348,0 -51.95455668,-23.30397881,0 -51.95437124,-23.30403604,0 -51.95419060,-23.30410511,0 -51.95401589,-23.30418617,0 -51.95389528,-23.30425133,0 -51.95373433,-23.30435326,0 -51.95358342,-23.30446631,0 -51.95344669,-23.30458633,0 -51.95332643,-23.30470867,0 -51.95327512,-23.30476655,0 -51.95315912,-23.30491194,0 -51.95308726,-23.30501248,0 -51.95302307,-23.30511227,0 -51.95296016,-23.30522264,0 -51.95287899,-23.30538695,0 -51.95280786,-23.30555518,0 -51.95274579,-23.30572646,0 -51.95269138,-23.30589995,0 -51.95264312,-23.30607500,0 -51.95259987,-23.30625117,0 -51.95256043,-23.30642809,0 -51.95252686,-23.30660604,0 -51.95249915,-23.30678485,0 -51.95247662,-23.30696428,0 -51.95245852,-23.30714414,0 -51.95244406,-23.30732428,0 -51.95243242,-23.30750460,0 -51.95241492,-23.30786552,0 -51.95240989,-23.30804609,0 -51.95240875,-23.30840736,0 -51.95241532,-23.30876859,0 -51.95244070,-23.30967149,0 -51.95244464,-23.31003275,0 -51.95244593,-23.31075531,0 -51.95245182,-23.31111654,0 -51.95246602,-23.31147757,0 -51.95247776,-23.31165788,0 -51.95249311,-23.31183796,0 -51.95251251,-23.31201770,0 -51.95253646,-23.31219698,0 -51.95259635,-23.31255398,0 -51.95266847,-23.31290905,0 -51.95278417,-23.31344034,0 -51.95285176,-23.31378140,0 -51.95286085,-23.31380518,0 -51.95287656,-23.31382579,0 -51.95290501,-23.31384458,0 -51.95293518,-23.31385169,0 -51.95296986,-23.31384758,0 -51.95300036,-23.31383171,0 -51.95302548,-23.31380895,0 -51.95311657,-23.31374062,0 -51.95312669,-23.31372963,0 -51.95314412,-23.31370143,0 -51.95315902,-23.31366804,0 -51.95316996,-23.31363338,0 -51.95317401,-23.31360477,0 -51.95313063,-23.31338252,0 -51.95297772,-23.31267390,0 -51.95291123,-23.31231790,0 -51.95288319,-23.31213913,0 -51.95285985,-23.31195979,0 -51.95284097,-23.31178000,0 -51.95282622,-23.31159988,0 -51.95281548,-23.31141951,0 -51.95280780,-23.31123901,0 -51.95279922,-23.31087782,0 -51.95279487,-23.30979400,0 -51.95276609,-23.30871049,0 -51.95276047,-23.30834925,0 -51.95276043,-23.30816861,0 -51.95276337,-23.30798799,0 -51.95277816,-23.30762698,0 -51.95280131,-23.30726634,0 -51.95281739,-23.30708632,0 -51.95283765,-23.30690665,0 -51.95286298,-23.30672754,0 -51.95289423,-23.30654924,0 -51.95293189,-23.30637199,0 -51.95297411,-23.30619561,0 -51.95302092,-23.30602023,0 -51.95307410,-23.30584640,0 -51.95313535,-23.30567488,0 -51.95320646,-23.30550664,0 -51.95328924,-23.30534304,0 -51.95333024,-23.30527132,0 -51.95338529,-23.30518575,0 -51.95349513,-23.30503634,0 -51.95354847,-23.30497145,0 -51.95361734,-23.30489539,0 -51.95369873,-23.30481342,0 -51.95381593,-23.30471054,0 -51.95394498,-23.30461386,0 -51.95405876,-23.30454116,0 -51.95415341,-23.30448739,0 -51.95422746,-23.30444992,0 -51.95429670,-23.30441782,0 -51.95440458,-23.30437347,0 -51.95458778,-23.30431040,0 -51.95470261,-23.30427807,0 -51.95477576,-23.30426075,0 -51.95487740,-23.30423977,0 -51.95496736,-23.30422476,0 -51.95506075,-23.30421244,0 -51.95516146,-23.30420298,0 -51.95525318,-23.30419751,0 -51.95535682,-23.30419535,0 -51.95545472,-23.30419691,0 -51.95555220,-23.30420232,0 -51.95566480,-23.30421293,0 -51.95574626,-23.30422430,0 -51.95593779,-23.30426049,0 -51.95606267,-23.30429197,0 -51.95619357,-23.30433176,0 -51.95630942,-23.30437234,0 -51.95648873,-23.30444439,0 -51.95666416,-23.30452418,0 -51.95683545,-23.30461134,0 -51.95700309,-23.30470434,0 -51.95716742,-23.30480226,0 -51.95732863,-23.30490453,0 -51.95748680,-23.30501078,0 -51.95764064,-23.30512227,0 -51.95778886,-23.30524010,0 -51.95793242,-23.30536275,0 -51.95807166,-23.30548958,0 -51.95820734,-23.30561968,0 -51.95834050,-23.30575198,0 -51.95886445,-23.30628853,0 -51.95954183,-23.30693995,0 -51.95980854,-23.30720421,0 -51.96006826,-23.30747434,0 -51.96027306,-23.30769996,0 -51.96028935,-23.30772857,0 -51.96029473,-23.30776419,0 -51.96028789,-23.30779961,0 -51.96027080,-23.30782784,0 -51.96014126,-23.30793776,0 -51.96011284,-23.30794956,0 -51.96008574,-23.30795250,0 -51.96005513,-23.30794715,0 -51.96002795,-23.30793308,0 -51.96001395,-23.30792051,0 -51.95976284,-23.30764514,0 -51.95950167,-23.30737620,0 -51.95923398,-23.30711278,0 -51.95869130,-23.30659233,0 -51.95855739,-23.30646068,0 -51.95816533,-23.30605751,0 -51.95789961,-23.30579241,0 -51.95776231,-23.30566378,0 -51.95762133,-23.30553859,0 -51.95747516,-23.30541861,0 -51.95732333,-23.30530479,0 -51.95716630,-23.30519714,0 -51.95700590,-23.30509380,0 -51.95684225,-23.30499490,0 -51.95667509,-23.30490115,0 -51.95650393,-23.30481378,0 -51.95632843,-23.30473413,0 -51.95614839,-23.30466369,0 -51.95607607,-23.30463835,0 -51.95596377,-23.30460422,0 -51.95583975,-23.30457282,0 -51.95571689,-23.30454904,0 -51.95558117,-23.30453178,0 -51.95544112,-23.30452189,0 -51.95526878,-23.30452241,0 -51.95510380,-23.30453521,0 -51.95499678,-23.30455026,0 -51.95487031,-23.30457403,0 -51.95480590,-23.30458928,0 -51.95472358,-23.30461133,0 -51.95461977,-23.30464449,0 -51.95451535,-23.30468303,0 -51.95443992,-23.30471524,0 -51.95432894,-23.30476931,0 -51.95426890,-23.30480270,0 -51.95421208,-23.30483715,0 -51.95410971,-23.30490748,0 -51.95404845,-23.30495476,0 -51.95396432,-23.30502814,0 -51.95390592,-23.30508457,0 -51.95383395,-23.30516266,0 -51.95378743,-23.30521789,0 -51.95368549,-23.30535564,0 -51.95359153,-23.30551064,0 -51.95353394,-23.30562633,0 -51.95346285,-23.30579457,0 -51.95340263,-23.30596641,0 -51.95335088,-23.30614060,0 -51.95330534,-23.30631627,0 -51.95326422,-23.30649287,0 -51.95322876,-23.30667050,0 -51.95320010,-23.30684918,0 -51.95317726,-23.30702858,0 -51.95315925,-23.30720845,0 -51.95314506,-23.30738861,0 -51.95313377,-23.30756895,0 -51.95311699,-23.30792989,0 -51.95311218,-23.30829113,0 -51.95311686,-23.30865238,0 -51.95314607,-23.30973588,0 -51.95314938,-23.31063907,0 -51.95315333,-23.31100033,0 -51.95316515,-23.31136144,0 -51.95317516,-23.31154184,0 -51.95318884,-23.31172203,0 -51.95320720,-23.31190187,0 -51.95323006,-23.31208127,0 -51.95325780,-23.31226007,0 -51.95328925,-23.31243836,0 -51.95336148,-23.31279342,0 -51.95346782,-23.31328125,0 -51.95347935,-23.31330798,0 -51.95349662,-23.31332750,0 -51.95352623,-23.31334478,0 -51.95356047,-23.31335156,0 -51.95359511,-23.31334686,0 -51.95362566,-23.31333106,0 -51.95373386,-23.31324228,0 -51.95374349,-23.31323093,0 -51.95375963,-23.31320207,0 -51.95377331,-23.31316824,0 -51.95378341,-23.31313335,0 -51.95378744,-23.31310473,0 -51.95367063,-23.31255828,0 -51.95363570,-23.31238055,0 -51.95360436,-23.31220225,0 -51.95357703,-23.31202339,0 -51.95355454,-23.31184395,0 -51.95353709,-23.31166404,0 -51.95351481,-23.31130336,0 -51.95350842,-23.31112282,0 -51.95350219,-23.31076159,0 -51.95350083,-23.31003903,0 -51.95349719,-23.30967777,0 -51.95346782,-23.30859427,0 -51.95346434,-23.30823301,0 -51.95346607,-23.30805238,0 -51.95347976,-23.30769134,0 -51.95350217,-23.30733066,0 -51.95351804,-23.30715062,0 -51.95353838,-23.30697096,0 -51.95356430,-23.30679192,0 -51.95359723,-23.30661388,0 -51.95363690,-23.30643699,0 -51.95368111,-23.30626104,0 -51.95373147,-23.30608650,0 -51.95379035,-23.30591427,0 -51.95386142,-23.30574603,0 -51.95390636,-23.30565629,0 -51.95394799,-23.30558415,0 -51.95398461,-23.30552721,0 -51.95405392,-23.30543240,0 -51.95410017,-23.30537560,0 -51.95417744,-23.30529252,0 -51.95424094,-23.30523280,0 -51.95431968,-23.30516876,0 -51.95441119,-23.30510538,0 -51.95447959,-23.30506504,0 -51.95455236,-23.30502692,0 -51.95465328,-23.30498231,0 -51.95476988,-23.30493981,0 -51.95483657,-23.30491956,0 -51.95495163,-23.30489044,0 -51.95502621,-23.30487577,0 -51.95514684,-23.30485799,0 -51.95528439,-23.30484731,0 -51.95541527,-23.30484668,0 -51.95550097,-23.30485096,0 -51.95560992,-23.30486296,0 -51.95575722,-23.30488907,0 -51.95585980,-23.30491492,0 -51.95605434,-23.30497849,0 -51.95616813,-23.30502386,0 -51.95634370,-23.30510338,0 -51.95651460,-23.30519118,0 -51.95668132,-23.30528559,0 -51.95684431,-23.30538542,0 -51.95700389,-23.30548984,0 -51.95715955,-23.30559918,0 -51.95730875,-23.30571593,0 -51.95745238,-23.30583851,0 -51.95759108,-23.30596585,0 -51.95772634,-23.30609632,0 -51.95785873,-23.30622927,0 -51.95825062,-23.30663259,0 -51.95838344,-23.30676518,0 -51.95906084,-23.30741657,0 -51.95932683,-23.30768146,0 -51.95958490,-23.30795293,0 -51.95975364,-23.30814043,0 -51.95977029,-23.30816887,0 -51.95977548,-23.30820089,0 -51.95976952,-23.30823279,0 -51.95975267,-23.30826115,0 -51.95961890,-23.30837215,0 -51.95959059,-23.30838418,0 -51.95955572,-23.30838719,0 -51.95952548,-23.30838026,0 -51.95949915,-23.30836488,0 -51.95927978,-23.30812349,0 -51.95902010,-23.30785333,0 -51.95875308,-23.30758933,0 -51.95807594,-23.30693771,0 -51.95755207,-23.30640109,0 -51.95741861,-23.30626904,0 -51.95728208,-23.30613972,0 -51.95714130,-23.30601434,0 -51.95699454,-23.30589498,0 -51.95684112,-23.30578300,0 -51.95668239,-23.30567749,0 -51.95652015,-23.30557663,0 -51.95635403,-23.30548133,0 -51.95618348,-23.30539297,0 -51.95600783,-23.30531360,0 -51.95592311,-23.30528028,0 -51.95582611,-23.30524699,0 -51.95575836,-23.30522640,0 -51.95563796,-23.30519820,0 -51.95553093,-23.30518078,0 -51.95544445,-23.30517356,0 -51.95535651,-23.30517095,0 -51.95524906,-23.30517525,0 -51.95513642,-23.30518780,0 -51.95505584,-23.30520223,0 -51.95498305,-23.30521867,0 -51.95486831,-23.30525294,0 -51.95479639,-23.30527940,0 -51.95469055,-23.30532780,0 -51.95461030,-23.30537361,0 -51.95452994,-23.30543036,0 -51.95445486,-23.30549467,0 -51.95439279,-23.30555877,0 -51.95432894,-23.30563601,0 -51.95427928,-23.30570569,0 -51.95422120,-23.30580194,0 -51.95418890,-23.30586572,0 -51.95414353,-23.30596816,0 -51.95411808,-23.30603403,0 -51.95406041,-23.30620662,0 -51.95401164,-23.30638154,0 -51.95396881,-23.30655779,0 -51.95393115,-23.30673504,0 -51.95390105,-23.30691351,0 -51.95387791,-23.30709288,0 -51.95385998,-23.30727275,0 -51.95383526,-23.30763330,0 -51.95381963,-23.30799428,0 -51.95381666,-23.30835553,0 -51.95382263,-23.30871677,0 -51.95384806,-23.30961966,0 -51.95385265,-23.30998091,0 -51.95385560,-23.31088411,0 -51.95386472,-23.31124528,0 -51.95387331,-23.31142575,0 -51.95388556,-23.31160603,0 -51.95390189,-23.31178603,0 -51.95392401,-23.31196551,0 -51.95395093,-23.31214442,0 -51.95398215,-23.31232274,0 -51.95401709,-23.31250047,0 -51.95407580,-23.31277511,0 -51.95408667,-23.31280208,0 -51.95410339,-23.31282200,0 -51.95413252,-23.31283994,0 -51.95415111,-23.31284546,0 -51.95417051,-23.31284752,0 -51.95420503,-23.31284215,0 -51.95423520,-23.31282573,0 -51.95433991,-23.31273876,0 -51.95435220,-23.31272479,0 -51.95436817,-23.31269585,0 -51.95438172,-23.31266197,0 -51.95439164,-23.31262705,0 -51.95439532,-23.31259839,0 -51.95432860,-23.31226493,0 -51.95429749,-23.31208659,0 -51.95427099,-23.31190763,0 -51.95424976,-23.31172806,0 -51.95423402,-23.31154801,0 -51.95422259,-23.31136769,0 -51.95421494,-23.31118719,0 -51.95420696,-23.31082599,0 -51.95420242,-23.30974216,0 -51.95417340,-23.30865866,0 -51.95416837,-23.30829741,0 -51.95417354,-23.30793618,0 -51.95418138,-23.30775569,0 -51.95420307,-23.30739497,0 -51.95421869,-23.30721491,0 -51.95423911,-23.30703527,0 -51.95426610,-23.30685637,0 -51.95430107,-23.30667866,0 -51.95434266,-23.30650215,0 -51.95438981,-23.30632685,0 -51.95444592,-23.30615384,0 -51.95447305,-23.30608267,0 -51.95451657,-23.30598549,0 -51.95455893,-23.30590754,0 -51.95461286,-23.30582857,0 -51.95466982,-23.30575952,0 -51.95474039,-23.30569216,0 -51.95480941,-23.30564184,0 -51.95485554,-23.30561507,0 -51.95490250,-23.30559222,0 -51.95500427,-23.30555313,0 -51.95508579,-23.30553001,0 -51.95519257,-23.30550884,0 -51.95527826,-23.30549934,0 -51.95535773,-23.30549617,0 -51.95547349,-23.30550216,0 -51.95552957,-23.30550943,0 -51.95559217,-23.30552155,0 -51.95572357,-23.30555813,0 -51.95584731,-23.30560379,0 -51.95593248,-23.30563984,0 -51.95602325,-23.30568257,0 -51.95619346,-23.30577148,0 -51.95635899,-23.30586766,0 -51.95652039,-23.30596967,0 -51.95667780,-23.30607683,0 -51.95682863,-23.30619176,0 -51.95697235,-23.30631426,0 -51.95711049,-23.30644212,0 -51.95724497,-23.30657327,0 -51.95776889,-23.30710985,0 -51.95790242,-23.30724183,0 -51.95857977,-23.30789328,0 -51.95884490,-23.30815889,0 -51.95897436,-23.30829429,0 -51.95922834,-23.30857415,0 -51.95924487,-23.30860264,0 -51.95924993,-23.30863467,0 -51.95924249,-23.30866995,0 -51.95922431,-23.30869760,0 -51.95912837,-23.30877733,0 -51.95909991,-23.30879641,0 -51.95906673,-23.30880679,0 -51.95902775,-23.30880776,0 -51.95898985,-23.30879927,0 -51.95895968,-23.30878280,0 -51.95879628,-23.30860219,0 -51.95853843,-23.30833054,0 -51.95827210,-23.30806595,0 -51.95759471,-23.30741454,0 -51.95746220,-23.30728168,0 -51.95707031,-23.30687837,0 -51.95693761,-23.30674568,0 -51.95680185,-23.30661566,0 -51.95666126,-23.30649009,0 -51.95651392,-23.30637134,0 -51.95635805,-23.30626227,0 -51.95619756,-23.30615906,0 -51.95603288,-23.30606163,0 -51.95586302,-23.30597216,0 -51.95577917,-23.30593259,0 -51.95568675,-23.30589407,0 -51.95560608,-23.30586473,0 -51.95550173,-23.30583626,0 -51.95541428,-23.30582337,0 -51.95535896,-23.30582139,0 -51.95530746,-23.30582343,0 -51.95522189,-23.30583437,0 -51.95517002,-23.30584573,0 -51.95511684,-23.30586139,0 -51.95505745,-23.30588420,0 -51.95501941,-23.30590346,0 -51.95498827,-23.30592403,0 -51.95495228,-23.30595539,0 -51.95489285,-23.30602644,0 -51.95484462,-23.30610542,0 -51.95480257,-23.30619719,0 -51.95477377,-23.30627364,0 -51.95471952,-23.30644716,0 -51.95467405,-23.30662284,0 -51.95463403,-23.30679965,0 -51.95460231,-23.30697788,0 -51.95457855,-23.30715717,0 -51.95456071,-23.30733705,0 -51.95454732,-23.30751727,0 -51.95452802,-23.30787810,0 -51.95452232,-23.30805866,0 -51.95452133,-23.30841993,0 -51.95452857,-23.30878115,0 -51.95455362,-23.30968405,0 -51.95455846,-23.31076787,0 -51.95456515,-23.31112909,0 -51.95457225,-23.31130961,0 -51.95458249,-23.31149000,0 -51.95459762,-23.31167010,0 -51.95461796,-23.31184974,0 -51.95464406,-23.31202876,0 -51.95468695,-23.31226760,0 -51.95469752,-23.31229468,0 -51.95471677,-23.31231730,0 -51.95474642,-23.31233450,0 -51.95478074,-23.31234088,0 -51.95481524,-23.31233542,0 -51.95484529,-23.31231881,0 -51.95496204,-23.31221748,0 -51.95497683,-23.31219204,0 -51.95499258,-23.31215508,0 -51.95500453,-23.31211692,0 -51.95500957,-23.31208842,0 -51.95496990,-23.31182715,0 -51.95494904,-23.31164754,0 -51.95493374,-23.31146746,0 -51.95491675,-23.31110653,0 -51.95491038,-23.31074530,0 -51.95490775,-23.30984211,0 -51.95490115,-23.30948088,0 -51.95487596,-23.30857798,0 -51.95487276,-23.30821672,0 -51.95487523,-23.30803610,0 -51.95489063,-23.30767511,0 -51.95491645,-23.30731465,0 -51.95493617,-23.30713494,0 -51.95498017,-23.30685932,0 -51.95506001,-23.30653010,0 -51.95509200,-23.30642779,0 -51.95513127,-23.30631410,0 -51.95515712,-23.30625768,0 -51.95518698,-23.30620665,0 -51.95521169,-23.30617711,0 -51.95526423,-23.30615927,0 -51.95533919,-23.30614762,0 -51.95537961,-23.30614752,0 -51.95542380,-23.30615404,0 -51.95549147,-23.30617250,0 -51.95554977,-23.30619371,0 -51.95566990,-23.30624616,0 -51.95584043,-23.30633457,0 -51.95600534,-23.30643165,0 -51.95616542,-23.30653541,0 -51.95629163,-23.30662373,0 -51.95642302,-23.30672961,0 -51.95660380,-23.30689439,0 -51.95673826,-23.30702555,0 -51.95726277,-23.30756164,0 -51.95739639,-23.30769354,0 -51.95793877,-23.30821426,0 -51.95820655,-23.30847760,0 -51.95846690,-23.30874720,0 -51.95876566,-23.30907958,0</coordinates></LineString>
    </Placemark>
  </Document>
</kml>
